[{"OBJECT_NAME":"ONEWEB-0568","OBJECT_ID":"2023-043S","EPOCH":"2025-07-30T05:45:18.985248","MEAN_MOTION":13.16593569,"ECCENTRICITY":0.0001783,"INCLINATION":87.9056,"RA_OF_ASC_NODE":292.9379,"ARG_OF_PERICENTER":105.3977,"MEAN_ANOMALY":254.7351,"EPHEMERIS_TYPE":0,"CLASSIFICATION_TYPE":"U","NORAD_CAT_ID":56062,"ELEMENT_SET_NO":999,"REV_AT_EPOCH":11752,"BSTAR":0.00011502,"MEAN_MOTION_DOT":5.7e-7,"MEAN_MOTION_DDOT":0},{"OBJECT_NAME":"ONEWEB-0574","OBJECT_ID":"2023-043T","EPOCH":"2025-07-29T19:13:18.876288","MEAN_MOTION":13.21826202,"ECCENTRICITY":0.0002081,"INCLINATION":87.9273,"RA_OF_ASC_NODE":308.283,"ARG_OF_PERICENTER":103.9664,"MEAN_ANOMALY":256.1702,"EPHEMERIS_TYPE":0,"CLASSIFICATION_TYPE":"U","NORAD_CAT_ID":56063,"ELEMENT_SET_NO":999,"REV_AT_EPOCH":11568,"BSTAR":3.8027e-5,"MEAN_MOTION_DOT":2.9e-7,"MEAN_MOTION_DDOT":0},{"OBJECT_NAME":"ONEWEB-0575","OBJECT_ID":"2023-043U","EPOCH":"2025-07-29T22:18:27.707040","MEAN_MOTION":13.16595934,"ECCENTRICITY":0.0002135,"INCLINATION":87.9048,"RA_OF_ASC_NODE":293.0067,"ARG_OF_PERICENTER":111.3593,"MEAN_ANOMALY":248.7766,"EPHEMERIS_TYPE":0,"CLASSIFICATION_TYPE":"U","NORAD_CAT_ID":56064,"ELEMENT_SET_NO":999,"REV_AT_EPOCH":11656,"BSTAR":0.00011396,"MEAN_MOTION_DOT":5.6e-7,"MEAN_MOTION_DDOT":0},{"OBJECT_NAME":"ONEWEB-0576","OBJECT_ID":"2023-043V","EPOCH":"2025-07-30T05:08:50.358336","MEAN_MOTION":13.16593469,"ECCENTRICITY":0.0001874,"INCLINATION":87.9051,"RA_OF_ASC_NODE":292.941,"ARG_OF_PERICENTER":104.5889,"MEAN_ANOMALY":255.545,"EPHEMERIS_TYPE":0,"CLASSIFICATION_TYPE":"U","NORAD_CAT_ID":56065,"ELEMENT_SET_NO":999,"REV_AT_EPOCH":11750,"BSTAR":0.00029167,"MEAN_MOTION_DOT":1.24e-6,"MEAN_MOTION_DDOT":0},{"OBJECT_NAME":"ONEWEB-0577","OBJECT_ID":"2023-043W","EPOCH":"2025-07-29T18:21:21.111552","MEAN_MOTION":13.16594649,"ECCENTRICITY":0.0002332,"INCLINATION":87.9059,"RA_OF_ASC_NODE":293.031,"ARG_OF_PERICENTER":116.5739,"MEAN_ANOMALY":243.5631,"EPHEMERIS_TYPE":0,"CLASSIFICATION_TYPE":"U","NORAD_CAT_ID":56066,"ELEMENT_SET_NO":999,"REV_AT_EPOCH":11656,"BSTAR":-1.0727e-5,"MEAN_MOTION_DOT":9.0e-8,"MEAN_MOTION_DDOT":0},{"OBJECT_NAME":"ONEWEB-0578","OBJECT_ID":"2023-043X","EPOCH":"2025-07-30T05:49:09.582528","MEAN_MOTION":13.21821568,"ECCENTRICITY":0.0001802,"INCLINATION":87.9273,"RA_OF_ASC_NODE":308.2058,"ARG_OF_PERICENTER":104.2387,"MEAN_ANOMALY":255.8947,"EPHEMERIS_TYPE":0,"CLASSIFICATION_TYPE":"U","NORAD_CAT_ID":56067,"ELEMENT_SET_NO":999,"REV_AT_EPOCH":11661,"BSTAR":0.0025944,"MEAN_MOTION_DOT":1.085e-5,"MEAN_MOTION_DDOT":0},{"OBJECT_NAME":"ONEWEB-0579","OBJECT_ID":"2023-043Y","EPOCH":"2025-07-29T18:41:31.597152","MEAN_MOTION":13.21826748,"ECCENTRICITY":0.0002251,"INCLINATION":87.9273,"RA_OF_ASC_NODE":308.2837,"ARG_OF_PERICENTER":97.7403,"MEAN_ANOMALY":262.3986,"EPHEMERIS_TYPE":0,"CLASSIFICATION_TYPE":"U","NORAD_CAT_ID":56068,"ELEMENT_SET_NO":999,"REV_AT_EPOCH":11565,"BSTAR":0.00014638,"MEAN_MOTION_DOT":7.3e-7,"MEAN_MOTION_DDOT":0},{"OBJECT_NAME":"ONEWEB-0581","OBJECT_ID":"2023-043Z","EPOCH":"2025-07-29T18:30:28.253376","MEAN_MOTION":13.16595337,"ECCENTRICITY":0.000238,"INCLINATION":87.9044,"RA_OF_ASC_NODE":293.0564,"ARG_OF_PERICENTER":106.5088,"MEAN_ANOMALY":253.6304,"EPHEMERIS_TYPE":0,"CLASSIFICATION_TYPE":"U","NORAD_CAT_ID":56069,"ELEMENT_SET_NO":999,"REV_AT_EPOCH":11653,"BSTAR":-3.9754e-5,"MEAN_MOTION_DOT":-2.0e-8,"MEAN_MOTION_DDOT":0},{"OBJECT_NAME":"ONEWEB-0609","OBJECT_ID":"2023-043AA","EPOCH":"2025-07-29T20:28:02.307936","MEAN_MOTION":13.15548859,"ECCENTRICITY":0.0001877,"INCLINATION":87.9088,"RA_OF_ASC_NODE":323.4966,"ARG_OF_PERICENTER":96.6277,"MEAN_ANOMALY":263.5067,"EPHEMERIS_TYPE":0,"CLASSIFICATION_TYPE":"U","NORAD_CAT_ID":56070,"ELEMENT_SET_NO":999,"REV_AT_EPOCH":11405,"BSTAR":-1.3167e-5,"MEAN_MOTION_DOT":8.0e-8,"MEAN_MOTION_DDOT":0},{"OBJECT_NAME":"ONEWEB-0613","OBJECT_ID":"2023-043AB","EPOCH":"2025-07-29T20:21:11.542464","MEAN_MOTION":13.15549361,"ECCENTRICITY":0.0002071,"INCLINATION":87.9092,"RA_OF_ASC_NODE":323.5103,"ARG_OF_PERICENTER":94.9622,"MEAN_ANOMALY":265.1744,"EPHEMERIS_TYPE":0,"CLASSIFICATION_TYPE":"U","NORAD_CAT_ID":56071,"ELEMENT_SET_NO":999,"REV_AT_EPOCH":11405,"BSTAR":0.00031326,"MEAN_MOTION_DOT":1.31e-6,"MEAN_MOTION_DDOT":0},{"OBJECT_NAME":"ONEWEB-0630","OBJECT_ID":"2023-043AC","EPOCH":"2025-07-30T05:21:56.404800","MEAN_MOTION":13.15549742,"ECCENTRICITY":0.0002065,"INCLINATION":87.9086,"RA_OF_ASC_NODE":323.4118,"ARG_OF_PERICENTER":91.419,"MEAN_ANOMALY":268.7177,"EPHEMERIS_TYPE":0,"CLASSIFICATION_TYPE":"U","NORAD_CAT_ID":56072,"ELEMENT_SET_NO":999,"REV_AT_EPOCH":11500,"BSTAR":0.00044655,"MEAN_MOTION_DOT":1.81e-6,"MEAN_MOTION_DDOT":0},{"OBJECT_NAME":"ONEWEB-0632","OBJECT_ID":"2023-043AD","EPOCH":"2025-07-29T20:07:29.026560","MEAN_MOTION":13.1554979,"ECCENTRICITY":0.0002121,"INCLINATION":87.9087,"RA_OF_ASC_NODE":323.5082,"ARG_OF_PERICENTER":102.4351,"MEAN_ANOMALY":257.7016,"EPHEMERIS_TYPE":0,"CLASSIFICATION_TYPE":"U","NORAD_CAT_ID":56073,"ELEMENT_SET_NO":999,"REV_AT_EPOCH":11404,"BSTAR":0.0001468,"MEAN_MOTION_DOT":6.8e-7,"MEAN_MOTION_DDOT":0},{"OBJECT_NAME":"ONEWEB-0633","OBJECT_ID":"2023-043AE","EPOCH":"2025-07-29T19:58:21.619488","MEAN_MOTION":13.15547105,"ECCENTRICITY":0.0001998,"INCLINATION":87.9079,"RA_OF_ASC_NODE":323.4757,"ARG_OF_PERICENTER":86.7712,"MEAN_ANOMALY":273.3647,"EPHEMERIS_TYPE":0,"CLASSIFICATION_TYPE":"U","NORAD_CAT_ID":56074,"ELEMENT_SET_NO":999,"REV_AT_EPOCH":11402,"BSTAR":0.00013337,"MEAN_MOTION_DOT":6.3e-7,"MEAN_MOTION_DDOT":0},{"OBJECT_NAME":"ONEWEB-0634","OBJECT_ID":"2023-043AF","EPOCH":"2025-07-29T19:37:49.596096","MEAN_MOTION":13.15549397,"ECCENTRICITY":0.0001615,"INCLINATION":87.9089,"RA_OF_ASC_NODE":323.5164,"ARG_OF_PERICENTER":93.8955,"MEAN_ANOMALY":266.236,"EPHEMERIS_TYPE":0,"CLASSIFICATION_TYPE":"U","NORAD_CAT_ID":56075,"ELEMENT_SET_NO":999,"REV_AT_EPOCH":11401,"BSTAR":-0.00016009,"MEAN_MOTION_DOT":-4.7e-7,"MEAN_MOTION_DDOT":0},{"OBJECT_NAME":"ONEWEB-0635","OBJECT_ID":"2023-043AG","EPOCH":"2025-07-29T19:30:59.097600","MEAN_MOTION":13.15547701,"ECCENTRICITY":0.0002169,"INCLINATION":87.9059,"RA_OF_ASC_NODE":323.4913,"ARG_OF_PERICENTER":105.6403,"MEAN_ANOMALY":254.4967,"EPHEMERIS_TYPE":0,"CLASSIFICATION_TYPE":"U","NORAD_CAT_ID":56076,"ELEMENT_SET_NO":999,"REV_AT_EPOCH":11404,"BSTAR":-0.00024405,"MEAN_MOTION_DOT":-7.9e-7,"MEAN_MOTION_DDOT":0},{"OBJECT_NAME":"ONEWEB-0636","OBJECT_ID":"2023-043AH","EPOCH":"2025-07-29T21:09:05.311872","MEAN_MOTION":13.15549889,"ECCENTRICITY":0.000213,"INCLINATION":87.9068,"RA_OF_ASC_NODE":323.4905,"ARG_OF_PERICENTER":104.535,"MEAN_ANOMALY":255.6017,"EPHEMERIS_TYPE":0,"CLASSIFICATION_TYPE":"U","NORAD_CAT_ID":56077,"ELEMENT_SET_NO":999,"REV_AT_EPOCH":11403,"BSTAR":-0.00031589,"MEAN_MOTION_DOT":-1.06e-6,"MEAN_MOTION_DDOT":0},{"OBJECT_NAME":"ONEWEB-0637","OBJECT_ID":"2023-043AJ","EPOCH":"2025-07-29T20:59:59.434944","MEAN_MOTION":13.1554707,"ECCENTRICITY":0.0001833,"INCLINATION":87.9078,"RA_OF_ASC_NODE":323.5024,"ARG_OF_PERICENTER":110.3868,"MEAN_ANOMALY":249.7459,"EPHEMERIS_TYPE":0,"CLASSIFICATION_TYPE":"U","NORAD_CAT_ID":56078,"ELEMENT_SET_NO":999,"REV_AT_EPOCH":11405,"BSTAR":-0.00040737,"MEAN_MOTION_DOT":-1.41e-6,"MEAN_MOTION_DDOT":0}]
