ONEWEB-0568             
1 56062U 23043S   25211.23980307  .00000057  00000+0  11502-3 0  9997
2 56062  87.9056 292.9379 0001783 105.3977 254.7351 13.16593569117529
ONEWEB-0574             
1 56063U 23043T   25210.80091292  .00000029  00000+0  38027-4 0  9997
2 56063  87.9273 308.2830 0002081 103.9664 256.1702 13.21826202115683
ONEWEB-0575             
1 56064U 23043U   25210.92948735  .00000056  00000+0  11396-3 0  9993
2 56064  87.9048 293.0067 0002135 111.3593 248.7766 13.16595934116565
ONEWEB-0576             
1 56065U 23043V   25211.21447174  .00000124  00000+0  29167-3 0  9999
2 56065  87.9051 292.9410 0001874 104.5889 255.5450 13.16593469117503
ONEWEB-0577             
1 56066U 23043W   25210.76482768  .00000009  00000+0 -10727-4 0  9993
2 56066  87.9059 293.0310 0002332 116.5739 243.5631 13.16594649116564
ONEWEB-0578             
1 56067U 23043X   25211.24247202  .00001085  00000+0  25944-2 0  9999
2 56067  87.9273 308.2058 0001802 104.2387 255.8947 13.21821568116616
ONEWEB-0579             
1 56068U 23043Y   25210.77883793  .00000073  00000+0  14638-3 0  9993
2 56068  87.9273 308.2837 0002251  97.7403 262.3986 13.21826748115650
ONEWEB-0581             
1 56069U 23043Z   25210.77116034 -.00000002  00000+0 -39754-4 0  9992
2 56069  87.9044 293.0564 0002380 106.5088 253.6304 13.16595337116532
ONEWEB-0609             
1 56070U 23043AA  25210.85280449  .00000008  00000+0 -13167-4 0  9990
2 56070  87.9088 323.4966 0001877  96.6277 263.5067 13.15548859114052
ONEWEB-0613             
1 56071U 23043AB  25210.84805026  .00000131  00000+0  31326-3 0  9996
2 56071  87.9092 323.5103 0002071  94.9622 265.1744 13.15549361114053
ONEWEB-0630             
1 56072U 23043AC  25211.22356950  .00000181  00000+0  44655-3 0  9991
2 56072  87.9086 323.4118 0002065  91.4190 268.7177 13.15549742115005
ONEWEB-0632             
1 56073U 23043AD  25210.83853040  .00000068  00000+0  14680-3 0  9999
2 56073  87.9087 323.5082 0002121 102.4351 257.7016 13.15549790114049
ONEWEB-0633             
1 56074U 23043AE  25210.83219467  .00000063  00000+0  13337-3 0  9992
2 56074  87.9079 323.4757 0001998  86.7712 273.3647 13.15547105114025
ONEWEB-0634             
1 56075U 23043AF  25210.81793514 -.00000047  00000+0 -16009-3 0  9994
2 56075  87.9089 323.5164 0001615  93.8955 266.2360 13.15549397114011
ONEWEB-0635             
1 56076U 23043AG  25210.81318400 -.00000079  00000+0 -24405-3 0  9996
2 56076  87.9059 323.4913 0002169 105.6403 254.4967 13.15547701114047
ONEWEB-0636             
1 56077U 23043AH  25210.88131148 -.00000106  00000+0 -31589-3 0  9998
2 56077  87.9068 323.4905 0002130 104.5350 255.6017 13.15549889114033
ONEWEB-0637             
1 56078U 23043AJ  25210.87499346 -.00000141  00000+0 -40737-3 0  9999
2 56078  87.9078 323.5024 0001833 110.3868 249.7459 13.15547070114052
